[
    {
        "Altitude(m)": 624792.7430094238,
        "Argument of Periapsis(deg)": 0.0,
        "Eccentricity": 0.0,
        "Inclination(deg)": 60.0,
        "Latitude(deg)": -59.14699946369283,
        "Longitude(deg)": 64.0264928059034,
        "Mean Anomaly(deg)": -98.18179999999998,
        "RAAN(deg)": 270.0,
        "Satellite Name": "Test1 1204",
        "Satellite Number": 1204,
        "Semi-Major Axis(m)": 6980739.136638005,
        "Time(s)": 0
    },
    {
        "Altitude(m)": 624842.1347768244,
        "Argument of Periapsis(deg)": 0.00010418945913296404,
        "Eccentricity": 0.0,
        "Inclination(deg)": 60.0,
        "Latitude(deg)": -59.28908200919328,
        "Longitude(deg)": 65.15599445036993,
        "Mean Anomaly(deg)": -97.56169385453813,
        "RAAN(deg)": 269.99957995086027,
        "Satellite Name": "Test1 1204",
        "Satellite Number": 1204,
        "Semi-Major Axis(m)": 6980739.136638005,
        "Time(s)": 10
    }
]